CCSDS_OMM_VERS = 2.0
CREATION_DATE  = 
ORIGINATOR     = 

OBJECT_NAME    = STARLINK-35991
OBJECT_ID      = 2025-281P
CENTER_NAME    = EARTH
REF_FRAME      = TEME
TIME_SYSTEM    = UTC
MEAN_ELEMENT_THEORY = SGP/SGP4

EPOCH          = 2025-12-13T14:05:17.957760
MEAN_MOTION    = 15.89447324
ECCENTRICITY   = .00024367
INCLINATION    = 43.0007
RA_OF_ASC_NODE = 117.0527
ARG_OF_PERICENTER = 286.8939
MEAN_ANOMALY   = 73.1668

EPHEMERIS_TYPE = 0
CLASSIFICATION_TYPE = U
NORAD_CAT_ID   = 66861
ELEMENT_SET_NO = 999
REV_AT_EPOCH   = 293
BSTAR          = -.15855614E-2
MEAN_MOTION_DOT = -.456454E-2
MEAN_MOTION_DDOT = 0

CCSDS_OMM_VERS = 2.0
CREATION_DATE  = 
ORIGINATOR     = 

OBJECT_NAME    = STARLINK-35974
OBJECT_ID      = 2025-281Q
CENTER_NAME    = EARTH
REF_FRAME      = TEME
TIME_SYSTEM    = UTC
MEAN_ELEMENT_THEORY = SGP/SGP4

EPOCH          = 2025-12-13T15:36:30.124224
MEAN_MOTION    = 15.89289306
ECCENTRICITY   = .00021179
INCLINATION    = 43.0005
RA_OF_ASC_NODE = 116.6675
ARG_OF_PERICENTER = 264.7815
MEAN_ANOMALY   = 95.2817

EPHEMERIS_TYPE = 0
CLASSIFICATION_TYPE = U
NORAD_CAT_ID   = 66862
ELEMENT_SET_NO = 999
REV_AT_EPOCH   = 294
BSTAR          = -.15111809E-2
MEAN_MOTION_DOT = -.432667E-2
MEAN_MOTION_DDOT = 0

CCSDS_OMM_VERS = 2.0
CREATION_DATE  = 
ORIGINATOR     = 

OBJECT_NAME    = STARLINK-36134
OBJECT_ID      = 2025-281R
CENTER_NAME    = EARTH
REF_FRAME      = TEME
TIME_SYSTEM    = UTC
MEAN_ELEMENT_THEORY = SGP/SGP4

EPOCH          = 2025-12-13T09:32:53.648160
MEAN_MOTION    = 15.90340197
ECCENTRICITY   = .00045936
INCLINATION    = 43.0003
RA_OF_ASC_NODE = 118.2156
ARG_OF_PERICENTER = 236.9569
MEAN_ANOMALY   = 123.0865

EPHEMERIS_TYPE = 0
CLASSIFICATION_TYPE = U
NORAD_CAT_ID   = 66863
ELEMENT_SET_NO = 999
REV_AT_EPOCH   = 290
BSTAR          = .18853581E-2
MEAN_MOTION_DOT = .640569E-2
MEAN_MOTION_DDOT = 0

CCSDS_OMM_VERS = 2.0
CREATION_DATE  = 
ORIGINATOR     = 

OBJECT_NAME    = STARLINK-36070
OBJECT_ID      = 2025-281S
CENTER_NAME    = EARTH
REF_FRAME      = TEME
TIME_SYSTEM    = UTC
MEAN_ELEMENT_THEORY = SGP/SGP4

EPOCH          = 2025-12-13T06:31:20.574624
MEAN_MOTION    = 15.90380504
ECCENTRICITY   = .00029883
INCLINATION    = 43.0010
RA_OF_ASC_NODE = 118.9904
ARG_OF_PERICENTER = 246.7998
MEAN_ANOMALY   = 113.2562

EPHEMERIS_TYPE = 0
CLASSIFICATION_TYPE = U
NORAD_CAT_ID   = 66864
ELEMENT_SET_NO = 999
REV_AT_EPOCH   = 288
BSTAR          = .57561017E-4
MEAN_MOTION_DOT = .17671E-3
MEAN_MOTION_DDOT = 0

CCSDS_OMM_VERS = 2.0
CREATION_DATE  = 
ORIGINATOR     = 

OBJECT_NAME    = STARLINK-36117
OBJECT_ID      = 2025-281T
CENTER_NAME    = EARTH
REF_FRAME      = TEME
TIME_SYSTEM    = UTC
MEAN_ELEMENT_THEORY = SGP/SGP4

EPOCH          = 2025-12-13T07:59:58.604352
MEAN_MOTION    = 15.97483939
ECCENTRICITY   = .0035365
INCLINATION    = 43.0001
RA_OF_ASC_NODE = 118.5926
ARG_OF_PERICENTER = 248.3273
MEAN_ANOMALY   = 111.3837

EPHEMERIS_TYPE = 0
CLASSIFICATION_TYPE = U
NORAD_CAT_ID   = 66865
ELEMENT_SET_NO = 999
REV_AT_EPOCH   = 289
BSTAR          = .24911057E-1
MEAN_MOTION_DOT = .7590645E-1
MEAN_MOTION_DDOT = .17917222E+0

CCSDS_OMM_VERS = 2.0
CREATION_DATE  = 
ORIGINATOR     = 

OBJECT_NAME    = STARLINK-36126
OBJECT_ID      = 2025-281U
CENTER_NAME    = EARTH
REF_FRAME      = TEME
TIME_SYSTEM    = UTC
MEAN_ELEMENT_THEORY = SGP/SGP4

EPOCH          = 2025-12-13T07:59:03.585696
MEAN_MOTION    = 15.93983897
ECCENTRICITY   = .00187508
INCLINATION    = 43.0012
RA_OF_ASC_NODE = 118.5881
ARG_OF_PERICENTER = 292.0437
MEAN_ANOMALY   = 67.8447

EPHEMERIS_TYPE = 0
CLASSIFICATION_TYPE = U
NORAD_CAT_ID   = 66866
ELEMENT_SET_NO = 999
REV_AT_EPOCH   = 288
BSTAR          = .59452705E-2
MEAN_MOTION_DOT = .2217371E-1
MEAN_MOTION_DDOT = .30689971E-2

CCSDS_OMM_VERS = 2.0
CREATION_DATE  = 
ORIGINATOR     = 

OBJECT_NAME    = STARLINK-36101
OBJECT_ID      = 2025-281V
CENTER_NAME    = EARTH
REF_FRAME      = TEME
TIME_SYSTEM    = UTC
MEAN_ELEMENT_THEORY = SGP/SGP4

EPOCH          = 2025-12-13T01:57:17.169408
MEAN_MOTION    = 15.91387471
ECCENTRICITY   = .00040392
INCLINATION    = 43.0014
RA_OF_ASC_NODE = 120.1442
ARG_OF_PERICENTER = 347.9531
MEAN_ANOMALY   = 12.1247

EPHEMERIS_TYPE = 0
CLASSIFICATION_TYPE = U
NORAD_CAT_ID   = 66867
ELEMENT_SET_NO = 999
REV_AT_EPOCH   = 284
BSTAR          = .14865949E-2
MEAN_MOTION_DOT = .493399E-2
MEAN_MOTION_DDOT = .101243E-3

CCSDS_OMM_VERS = 2.0
CREATION_DATE  = 
ORIGINATOR     = 

OBJECT_NAME    = STARLINK-36108
OBJECT_ID      = 2025-281W
CENTER_NAME    = EARTH
REF_FRAME      = TEME
TIME_SYSTEM    = UTC
MEAN_ELEMENT_THEORY = SGP/SGP4

EPOCH          = 2025-12-13T12:29:34.691424
MEAN_MOTION    = 15.89831567
ECCENTRICITY   = .00019489
INCLINATION    = 43.0005
RA_OF_ASC_NODE = 117.4123
ARG_OF_PERICENTER = 246.3671
MEAN_ANOMALY   = 113.6999

EPHEMERIS_TYPE = 0
CLASSIFICATION_TYPE = U
NORAD_CAT_ID   = 66868
ELEMENT_SET_NO = 999
REV_AT_EPOCH   = 291
BSTAR          = -.12654124E-2
MEAN_MOTION_DOT = -.374888E-2
MEAN_MOTION_DDOT = 0

CCSDS_OMM_VERS = 2.0
CREATION_DATE  = 
ORIGINATOR     = 

OBJECT_NAME    = STARLINK-36092
OBJECT_ID      = 2025-281X
CENTER_NAME    = EARTH
REF_FRAME      = TEME
TIME_SYSTEM    = UTC
MEAN_ELEMENT_THEORY = SGP/SGP4

EPOCH          = 2025-12-13T01:55:45.595776
MEAN_MOTION    = 15.91502527
ECCENTRICITY   = .00041167
INCLINATION    = 43.0013
RA_OF_ASC_NODE = 120.1353
ARG_OF_PERICENTER = 341.7678
MEAN_ANOMALY   = 18.3049

EPHEMERIS_TYPE = 0
CLASSIFICATION_TYPE = U
NORAD_CAT_ID   = 66869
ELEMENT_SET_NO = 999
REV_AT_EPOCH   = 284
BSTAR          = .14316425E-2
MEAN_MOTION_DOT = .477973E-2
MEAN_MOTION_DDOT = .95405516E-4

CCSDS_OMM_VERS = 2.0
CREATION_DATE  = 
ORIGINATOR     = 

OBJECT_NAME    = STARLINK-36114
OBJECT_ID      = 2025-281Y
CENTER_NAME    = EARTH
REF_FRAME      = TEME
TIME_SYSTEM    = UTC
MEAN_ELEMENT_THEORY = SGP/SGP4

EPOCH          = 2025-12-13T06:26:11.296320
MEAN_MOTION    = 15.91056469
ECCENTRICITY   = .00049871
INCLINATION    = 43.0001
RA_OF_ASC_NODE = 118.9610
ARG_OF_PERICENTER = 229.5903
MEAN_ANOMALY   = 130.4538

EPHEMERIS_TYPE = 0
CLASSIFICATION_TYPE = U
NORAD_CAT_ID   = 66870
ELEMENT_SET_NO = 999
REV_AT_EPOCH   = 287
BSTAR          = .17450127E-2
MEAN_MOTION_DOT = .569729E-2
MEAN_MOTION_DDOT = .13346303E-3

CCSDS_OMM_VERS = 2.0
CREATION_DATE  = 
ORIGINATOR     = 

OBJECT_NAME    = STARLINK-36095
OBJECT_ID      = 2025-281Z
CENTER_NAME    = EARTH
REF_FRAME      = TEME
TIME_SYSTEM    = UTC
MEAN_ELEMENT_THEORY = SGP/SGP4

EPOCH          = 2025-12-13T15:27:31.116960
MEAN_MOTION    = 15.89568462
ECCENTRICITY   = .00044707
INCLINATION    = 43.0000
RA_OF_ASC_NODE = 116.6161
ARG_OF_PERICENTER = 289.6102
MEAN_ANOMALY   = 70.4290

EPHEMERIS_TYPE = 0
CLASSIFICATION_TYPE = U
NORAD_CAT_ID   = 66871
ELEMENT_SET_NO = 999
REV_AT_EPOCH   = 293
BSTAR          = -.53786493E-2
MEAN_MOTION_DOT = -.1430332E-1
MEAN_MOTION_DDOT = 0

CCSDS_OMM_VERS = 2.0
CREATION_DATE  = 
ORIGINATOR     = 

OBJECT_NAME    = STARLINK-36082
OBJECT_ID      = 2025-281AA
CENTER_NAME    = EARTH
REF_FRAME      = TEME
TIME_SYSTEM    = UTC
MEAN_ELEMENT_THEORY = SGP/SGP4

EPOCH          = 2025-12-13T15:26:40.690464
MEAN_MOTION    = 15.89781513
ECCENTRICITY   = .00023467
INCLINATION    = 42.9999
RA_OF_ASC_NODE = 116.6102
ARG_OF_PERICENTER = 206.4259
MEAN_ANOMALY   = 153.6497

EPHEMERIS_TYPE = 0
CLASSIFICATION_TYPE = U
NORAD_CAT_ID   = 66872
ELEMENT_SET_NO = 999
REV_AT_EPOCH   = 293
BSTAR          = -.42006649E-2
MEAN_MOTION_DOT = -.1138109E-1
MEAN_MOTION_DDOT = 0

