STARLINK-35991          
1 66861U 25281P   25347.58701340 -.00456454  00000+0 -15856-2 0  9990
2 66861  43.0007 117.0527 0002436 286.8939  73.1668 15.89447324  2938
STARLINK-35974          
1 66862U 25281Q   25347.65034866 -.00432667  00000+0 -15112-2 0  9996
2 66862  43.0005 116.6675 0002117 264.7815  95.2817 15.89289306  2946
STARLINK-36134          
1 66863U 25281R   25347.39784315  .00640569  00000+0  18854-2 0  9995
2 66863  43.0003 118.2156 0004593 236.9569 123.0865 15.90340197  2901
STARLINK-36070          
1 66864U 25281S   25347.27176591  .00017671  00000+0  57561-4 0  9996
2 66864  43.0010 118.9904 0002988 246.7998 113.2562 15.90380504  2887
STARLINK-36117          
1 66865U 25281T   25347.33331718  .07590645  17917+0  24911-1 0  9997
2 66865  43.0001 118.5926 0035365 248.3273 111.3837 15.97483939  2895
STARLINK-36126          
1 66866U 25281U   25347.33268039  .02217371  30690-2  59453-2 0  9996
2 66866  43.0012 118.5881 0018750 292.0437  67.8447 15.93983897  2880
STARLINK-36101          
1 66867U 25281V   25347.08144872  .00493399  10124-3  14866-2 0  9991
2 66867  43.0014 120.1442 0004039 347.9531  12.1247 15.91387471  2846
STARLINK-36108          
1 66868U 25281W   25347.52054041 -.00374888  00000+0 -12654-2 0  9993
2 66868  43.0005 117.4123 0001948 246.3671 113.6999 15.89831567  2911
STARLINK-36092          
1 66869U 25281X   25347.08038884  .00477973  95406-4  14316-2 0  9995
2 66869  43.0013 120.1353 0004116 341.7678  18.3049 15.91502527  2847
STARLINK-36114          
1 66870U 25281Y   25347.26818630  .00569729  13346-3  17450-2 0  9997
2 66870  43.0001 118.9610 0004987 229.5903 130.4538 15.91056469  2878
STARLINK-36095          
1 66871U 25281Z   25347.64411015 -.01430332  00000+0 -53786-2 0  9997
2 66871  43.0000 116.6161 0004470 289.6102  70.4290 15.89568462  2932
STARLINK-36082          
1 66872U 25281AA  25347.64352651 -.01138109  00000+0 -42007-2 0  9999
2 66872  42.9999 116.6102 0002346 206.4259 153.6497 15.89781513  2930
